OBJECT_NAME,OBJECT_ID,EPOCH,MEAN_MOTION,ECCENTRICITY,INCLINATION,RA_OF_ASC_NODE,ARG_OF_PERICENTER,MEAN_ANOMALY,EPHEMERIS_TYPE,CLASSIFICATION_TYPE,NORAD_CAT_ID,ELEMENT_SET_NO,REV_AT_EPOCH,BSTAR,MEAN_MOTION_DOT,MEAN_MOTION_DDOT
HAWK-6B,2023-011A,2026-07-08T03:59:19.755168,15.23112450,.0003126,40.4970,229.6925,202.0179,158.0496,0,U,55324,999,19104,.10365E-3,.2301E-4,0
HAWK-6C,2023-011C,2026-07-08T02:24:00.946080,15.23112833,.0003515,40.4959,226.9143,189.3497,170.7247,0,U,55326,999,19104,.11523E-3,.2581E-4,0
HAWK-6A,2023-011D,2026-07-08T03:58:28.892352,15.23114258,.0003066,40.4967,228.1585,187.8198,172.2564,0,U,55327,999,19105,.1136E-3,.2541E-4,0
HAWK-7A,2023-054P,2026-07-07T17:54:22.422240,15.27580157,.0002261,97.2674,75.5606,5.1743,354.9520,0,U,56191,999,18016,.14051E-3,.3717E-4,0
HAWK-7B,2023-054R,2026-07-08T03:20:13.766208,15.27585680,.0002072,97.2701,74.2149,29.4266,330.7090,0,U,56193,999,18022,.12988E-3,.3431E-4,0
HAWK-7C,2023-054Y,2026-07-08T01:45:44.547264,15.27583071,.000175,97.2678,74.9131,16.0683,344.0612,0,U,56200,999,18021,.11989E-3,.3161E-4,0
