HAWK-6B                 
1 55324U 23011A   26189.16620087  .00002301  00000+0  10365-3 0  9995
2 55324  40.4970 229.6925 0003126 202.0179 158.0496 15.23112450191045
HAWK-6C                 
1 55326U 23011C   26189.10001095  .00002581  00000+0  11523-3 0  9990
2 55326  40.4959 226.9143 0003515 189.3497 170.7247 15.23112833191048
HAWK-6A                 
1 55327U 23011D   26189.16561218  .00002541  00000+0  11360-3 0  9990
2 55327  40.4967 228.1585 0003066 187.8198 172.2564 15.23114258191057
HAWK-7A                 
1 56191U 23054P   26188.74609285  .00003717  00000+0  14051-3 0  9993
2 56191  97.2674  75.5606 0002261   5.1743 354.9520 15.27580157180164
HAWK-7B                 
1 56193U 23054R   26189.13904822  .00003431  00000+0  12988-3 0  9994
2 56193  97.2701  74.2149 0002072  29.4266 330.7090 15.27585680180221
HAWK-7C                 
1 56200U 23054Y   26189.07343226  .00003161  00000+0  11989-3 0  9991
2 56200  97.2678  74.9131 0001750  16.0683 344.0612 15.27583071180217
